HAWK-A                  
1 43765U 18099H   26068.67628545  .00008617  00000+0  36104-3 0  9995
2 43765  97.4051 122.2425 0034260 275.5523  84.1807 15.23231043397949
STARLINK-30329          
1 57635U 23122D   26068.42338009  .00001376  00000+0  60951-4 0  9998
2 57635  43.0009  94.2279 0001445 260.6424  99.4264 15.26746530142162
